ORBCOMM FM115           
1 41186U 15081H   25003.99467796  .00002177  00000+0  46539-3 0  9998
2 41186  46.9978 100.1433 0001173 297.0315  63.0452 14.61905592483744
ORBCOMM FM108           
1 41187U 15081J   25004.51938047  .00002139  00000+0  50080-3 0  9994
2 41187  47.0027 159.6222 0003285 257.5080 102.5438 14.57704260482996
ORBCOMM FM117           
1 41188U 15081K   25003.80074217  .00002176  00000+0  50885-3 0  9990
2 41188  46.9991 161.8367 0003455 267.1605  92.8885 14.57682298482857
ORBCOMM FM116           
1 41189U 15081L   25003.85912078  .00002093  00000+0  49158-3 0  9991
2 41189  47.0000 251.4089 0001541   5.7964 354.2939 14.57620360481672
